GSAT0101 (GALILEO-PFM)  
1 37846U 11060A   24363.88279210 -.00000064  00000+0  00000+0 0  9990
2 37846  57.1190 356.2657 0003158 321.9564  38.0405  1.70475826 81991
GSAT0102 (GALILEO-FM2)  
1 37847U 11060B   24360.87637681 -.00000072  00000+0  00000+0 0  9996
2 37847  57.1217 356.3476 0004622 305.0708  55.1598  1.70475443 81956
GSAT0103 (GALILEO-FM3)  
1 38857U 12055A   24365.09542218  .00000007  00000+0  00000+0 0  9990
2 38857  55.5016 116.2204 0003231 257.3349 102.5932  1.70473425 75909
GSAT0201 (GALILEO 5)    
1 40128U 14050A   24362.58518943 -.00000074  00000+0  00000+0 0  9995
2 40128  49.4565 295.2733 1616715 158.7369 208.8695  1.85519652 68360
GSAT0202 (GALILEO 6)    
1 40129U 14050B   24362.30376162 -.00000075  00000+0  00000+0 0  9992
2 40129  49.4728 294.3642 1616188 159.5130 207.8316  1.85520364 70522
GSAT0203 (GALILEO 7)    
1 40544U 15017A   24365.42131550 -.00000062  00000+0  00000+0 0  9999
2 40544  56.9136 356.1316 0006112 272.8189  87.1261  1.70475888 60101
GSAT0204 (GALILEO 8)    
1 40545U 15017B   24359.81018685 -.00000076  00000+0  00000+0 0  9994
2 40545  56.9199 356.3004 0005787 261.9832  97.9735  1.70475803 23053
GSAT0205 (GALILEO 9)    
1 40889U 15045A   24364.27158277  .00000074  00000+0  00000+0 0  9991
2 40889  55.1323 236.3814 0006189  39.9858 320.1663  1.70473208 57895
GSAT0206 (GALILEO 10)   
1 40890U 15045B   24359.79946894  .00000039  00000+0  00000+0 0  9995
2 40890  55.1331 236.5006 0003866  33.6004 326.5088  1.70473353 57841
GSAT0209 (GALILEO 12)   
1 41174U 15079A   24365.24761708  .00000007  00000+0  00000+0 0  9999
2 41174  55.5204 115.9271 0002391 324.6266  35.3227  1.70474571 55671
GSAT0208 (GALILEO 11)   
1 41175U 15079B   24364.29434231  .00000007  00000+0  00000+0 0  9992
2 41175  55.5177 115.9510 0001782 323.7612  36.1894  1.70474418 56079
GSAT0211 (GALILEO 14)   
1 41549U 16030A   24365.59118025  .00000079  00000+0  00000+0 0  9998
2 41549  55.2799 236.3727 0004646  32.5239 327.6135  1.70473230 53570
GSAT0210 (GALILEO 13)   
1 41550U 16030B   24365.26242195  .00000078  00000+0  00000+0 0  9999
2 41550  55.2795 236.3801 0000535 218.6220 141.4828  1.70473707 53560
GSAT0207 (GALILEO 15)   
1 41859U 16069A   24365.54111703  .00000007  00000+0  00000+0 0  9996
2 41859  55.1874 115.8725 0002655 299.2881  60.6515  1.70474558 50307
GSAT0212 (GALILEO 16)   
1 41860U 16069B   24364.22202417  .00000006  00000+0  00000+0 0  9994
2 41860  55.1835 115.9052 0001456   0.9186 359.0443  1.70474767 50535
GSAT0213 (GALILEO 17)   
1 41861U 16069C   24365.76342571  .00000007  00000+0  00000+0 0  9992
2 41861  55.1866 115.8695 0002997 268.3165  91.6163  1.70475007 50424
GSAT0214 (GALILEO 18)   
1 41862U 16069D   24364.14913942  .00000007  00000+0  00000+0 0  9990
2 41862  55.1846 115.9075 0001893 264.6906  95.2503  1.70474901 50523
