[{"OBJECT_NAME":"GSAT0101 (GALILEO-PFM)","OBJECT_ID":"2011-060A","EPOCH":"2024-12-28T21:11:13.237440","MEAN_MOTION":1.70475826,"ECCENTRICITY":0.0003158,"INCLINATION":57.119,"RA_OF_ASC_NODE":356.2657,"ARG_OF_PERICENTER":321.9564,"MEAN_ANOMALY":38.0405,"EPHEMERIS_TYPE":0,"CLASSIFICATION_TYPE":"U","NORAD_CAT_ID":37846,"ELEMENT_SET_NO":999,"REV_AT_EPOCH":8199,"BSTAR":0,"MEAN_MOTION_DOT":-6.4e-7,"MEAN_MOTION_DDOT":0},{"OBJECT_NAME":"GSAT0102 (GALILEO-FM2)","OBJECT_ID":"2011-060B","EPOCH":"2024-12-25T21:01:58.956384","MEAN_MOTION":1.70475443,"ECCENTRICITY":0.0004622,"INCLINATION":57.1217,"RA_OF_ASC_NODE":356.3476,"ARG_OF_PERICENTER":305.0708,"MEAN_ANOMALY":55.1598,"EPHEMERIS_TYPE":0,"CLASSIFICATION_TYPE":"U","NORAD_CAT_ID":37847,"ELEMENT_SET_NO":999,"REV_AT_EPOCH":8195,"BSTAR":0,"MEAN_MOTION_DOT":-7.2e-7,"MEAN_MOTION_DDOT":0},{"OBJECT_NAME":"GSAT0103 (GALILEO-FM3)","OBJECT_ID":"2012-055A","EPOCH":"2024-12-30T02:17:24.476352","MEAN_MOTION":1.70473425,"ECCENTRICITY":0.0003231,"INCLINATION":55.5016,"RA_OF_ASC_NODE":116.2204,"ARG_OF_PERICENTER":257.3349,"MEAN_ANOMALY":102.5932,"EPHEMERIS_TYPE":0,"CLASSIFICATION_TYPE":"U","NORAD_CAT_ID":38857,"ELEMENT_SET_NO":999,"REV_AT_EPOCH":7590,"BSTAR":0,"MEAN_MOTION_DOT":7.0e-8,"MEAN_MOTION_DDOT":0},{"OBJECT_NAME":"GSAT0201 (GALILEO 5)","OBJECT_ID":"2014-050A","EPOCH":"2024-12-27T14:02:40.366752","MEAN_MOTION":1.85519652,"ECCENTRICITY":0.1616715,"INCLINATION":49.4565,"RA_OF_ASC_NODE":295.2733,"ARG_OF_PERICENTER":158.7369,"MEAN_ANOMALY":208.8695,"EPHEMERIS_TYPE":0,"CLASSIFICATION_TYPE":"U","NORAD_CAT_ID":40128,"ELEMENT_SET_NO":999,"REV_AT_EPOCH":6836,"BSTAR":0,"MEAN_MOTION_DOT":-7.4e-7,"MEAN_MOTION_DDOT":0},{"OBJECT_NAME":"GSAT0202 (GALILEO 6)","OBJECT_ID":"2014-050B","EPOCH":"2024-12-27T07:17:25.003968","MEAN_MOTION":1.85520364,"ECCENTRICITY":0.1616188,"INCLINATION":49.4728,"RA_OF_ASC_NODE":294.3642,"ARG_OF_PERICENTER":159.513,"MEAN_ANOMALY":207.8316,"EPHEMERIS_TYPE":0,"CLASSIFICATION_TYPE":"U","NORAD_CAT_ID":40129,"ELEMENT_SET_NO":999,"REV_AT_EPOCH":7052,"BSTAR":0,"MEAN_MOTION_DOT":-7.5e-7,"MEAN_MOTION_DDOT":0},{"OBJECT_NAME":"GSAT0203 (GALILEO 7)","OBJECT_ID":"2015-017A","EPOCH":"2024-12-30T10:06:41.659200","MEAN_MOTION":1.70475888,"ECCENTRICITY":0.0006112,"INCLINATION":56.9136,"RA_OF_ASC_NODE":356.1316,"ARG_OF_PERICENTER":272.8189,"MEAN_ANOMALY":87.1261,"EPHEMERIS_TYPE":0,"CLASSIFICATION_TYPE":"U","NORAD_CAT_ID":40544,"ELEMENT_SET_NO":999,"REV_AT_EPOCH":6010,"BSTAR":0,"MEAN_MOTION_DOT":-6.2e-7,"MEAN_MOTION_DDOT":0},{"OBJECT_NAME":"GSAT0204 (GALILEO 8)","OBJECT_ID":"2015-017B","EPOCH":"2024-12-24T19:26:40.143840","MEAN_MOTION":1.70475803,"ECCENTRICITY":0.0005787,"INCLINATION":56.9199,"RA_OF_ASC_NODE":356.3004,"ARG_OF_PERICENTER":261.9832,"MEAN_ANOMALY":97.9735,"EPHEMERIS_TYPE":0,"CLASSIFICATION_TYPE":"U","NORAD_CAT_ID":40545,"ELEMENT_SET_NO":999,"REV_AT_EPOCH":2305,"BSTAR":0,"MEAN_MOTION_DOT":-7.6e-7,"MEAN_MOTION_DDOT":0},{"OBJECT_NAME":"GSAT0205 (GALILEO 9)","OBJECT_ID":"2015-045A","EPOCH":"2024-12-29T06:31:04.751328","MEAN_MOTION":1.70473208,"ECCENTRICITY":0.0006189,"INCLINATION":55.1323,"RA_OF_ASC_NODE":236.3814,"ARG_OF_PERICENTER":39.9858,"MEAN_ANOMALY":320.1663,"EPHEMERIS_TYPE":0,"CLASSIFICATION_TYPE":"U","NORAD_CAT_ID":40889,"ELEMENT_SET_NO":999,"REV_AT_EPOCH":5789,"BSTAR":0,"MEAN_MOTION_DOT":7.4e-7,"MEAN_MOTION_DDOT":0},{"OBJECT_NAME":"GSAT0206 (GALILEO 10)","OBJECT_ID":"2015-045B","EPOCH":"2024-12-24T19:11:14.116416","MEAN_MOTION":1.70473353,"ECCENTRICITY":0.0003866,"INCLINATION":55.1331,"RA_OF_ASC_NODE":236.5006,"ARG_OF_PERICENTER":33.6004,"MEAN_ANOMALY":326.5088,"EPHEMERIS_TYPE":0,"CLASSIFICATION_TYPE":"U","NORAD_CAT_ID":40890,"ELEMENT_SET_NO":999,"REV_AT_EPOCH":5784,"BSTAR":0,"MEAN_MOTION_DOT":3.9e-7,"MEAN_MOTION_DDOT":0},{"OBJECT_NAME":"GSAT0209 (GALILEO 12)","OBJECT_ID":"2015-079A","EPOCH":"2024-12-30T05:56:34.115712","MEAN_MOTION":1.70474571,"ECCENTRICITY":0.0002391,"INCLINATION":55.5204,"RA_OF_ASC_NODE":115.9271,"ARG_OF_PERICENTER":324.6266,"MEAN_ANOMALY":35.3227,"EPHEMERIS_TYPE":0,"CLASSIFICATION_TYPE":"U","NORAD_CAT_ID":41174,"ELEMENT_SET_NO":999,"REV_AT_EPOCH":5567,"BSTAR":0,"MEAN_MOTION_DOT":7.0e-8,"MEAN_MOTION_DDOT":0},{"OBJECT_NAME":"GSAT0208 (GALILEO 11)","OBJECT_ID":"2015-079B","EPOCH":"2024-12-29T07:03:51.175584","MEAN_MOTION":1.70474418,"ECCENTRICITY":0.0001782,"INCLINATION":55.5177,"RA_OF_ASC_NODE":115.951,"ARG_OF_PERICENTER":323.7612,"MEAN_ANOMALY":36.1894,"EPHEMERIS_TYPE":0,"CLASSIFICATION_TYPE":"U","NORAD_CAT_ID":41175,"ELEMENT_SET_NO":999,"REV_AT_EPOCH":5607,"BSTAR":0,"MEAN_MOTION_DOT":7.0e-8,"MEAN_MOTION_DDOT":0},{"OBJECT_NAME":"GSAT0211 (GALILEO 14)","OBJECT_ID":"2016-030A","EPOCH":"2024-12-30T14:11:17.973600","MEAN_MOTION":1.7047323,"ECCENTRICITY":0.0004646,"INCLINATION":55.2799,"RA_OF_ASC_NODE":236.3727,"ARG_OF_PERICENTER":32.5239,"MEAN_ANOMALY":327.6135,"EPHEMERIS_TYPE":0,"CLASSIFICATION_TYPE":"U","NORAD_CAT_ID":41549,"ELEMENT_SET_NO":999,"REV_AT_EPOCH":5357,"BSTAR":0,"MEAN_MOTION_DOT":7.9e-7,"MEAN_MOTION_DDOT":0},{"OBJECT_NAME":"GSAT0210 (GALILEO 13)","OBJECT_ID":"2016-030B","EPOCH":"2024-12-30T06:17:53.256480","MEAN_MOTION":1.70473707,"ECCENTRICITY":5.35e-5,"INCLINATION":55.2795,"RA_OF_ASC_NODE":236.3801,"ARG_OF_PERICENTER":218.622,"MEAN_ANOMALY":141.4828,"EPHEMERIS_TYPE":0,"CLASSIFICATION_TYPE":"U","NORAD_CAT_ID":41550,"ELEMENT_SET_NO":999,"REV_AT_EPOCH":5356,"BSTAR":0,"MEAN_MOTION_DOT":7.8e-7,"MEAN_MOTION_DDOT":0},{"OBJECT_NAME":"GSAT0207 (GALILEO 15)","OBJECT_ID":"2016-069A","EPOCH":"2024-12-30T12:59:12.511392","MEAN_MOTION":1.70474558,"ECCENTRICITY":0.0002655,"INCLINATION":55.1874,"RA_OF_ASC_NODE":115.8725,"ARG_OF_PERICENTER":299.2881,"MEAN_ANOMALY":60.6515,"EPHEMERIS_TYPE":0,"CLASSIFICATION_TYPE":"U","NORAD_CAT_ID":41859,"ELEMENT_SET_NO":999,"REV_AT_EPOCH":5030,"BSTAR":0,"MEAN_MOTION_DOT":7.0e-8,"MEAN_MOTION_DDOT":0},{"OBJECT_NAME":"GSAT0212 (GALILEO 16)","OBJECT_ID":"2016-069B","EPOCH":"2024-12-29T05:19:42.888288","MEAN_MOTION":1.70474767,"ECCENTRICITY":0.0001456,"INCLINATION":55.1835,"RA_OF_ASC_NODE":115.9052,"ARG_OF_PERICENTER":0.9186,"MEAN_ANOMALY":359.0443,"EPHEMERIS_TYPE":0,"CLASSIFICATION_TYPE":"U","NORAD_CAT_ID":41860,"ELEMENT_SET_NO":999,"REV_AT_EPOCH":5053,"BSTAR":0,"MEAN_MOTION_DOT":6.0e-8,"MEAN_MOTION_DDOT":0},{"OBJECT_NAME":"GSAT0213 (GALILEO 17)","OBJECT_ID":"2016-069C","EPOCH":"2024-12-30T18:19:19.981344","MEAN_MOTION":1.70475007,"ECCENTRICITY":0.0002997,"INCLINATION":55.1866,"RA_OF_ASC_NODE":115.8695,"ARG_OF_PERICENTER":268.3165,"MEAN_ANOMALY":91.6163,"EPHEMERIS_TYPE":0,"CLASSIFICATION_TYPE":"U","NORAD_CAT_ID":41861,"ELEMENT_SET_NO":999,"REV_AT_EPOCH":5042,"BSTAR":0,"MEAN_MOTION_DOT":7.0e-8,"MEAN_MOTION_DDOT":0},{"OBJECT_NAME":"GSAT0214 (GALILEO 18)","OBJECT_ID":"2016-069D","EPOCH":"2024-12-29T03:34:45.645888","MEAN_MOTION":1.70474901,"ECCENTRICITY":0.0001893,"INCLINATION":55.1846,"RA_OF_ASC_NODE":115.9075,"ARG_OF_PERICENTER":264.6906,"MEAN_ANOMALY":95.2503,"EPHEMERIS_TYPE":0,"CLASSIFICATION_TYPE":"U","NORAD_CAT_ID":41862,"ELEMENT_SET_NO":999,"REV_AT_EPOCH":5052,"BSTAR":0,"MEAN_MOTION_DOT":7.0e-8,"MEAN_MOTION_DDOT":0}]
